{
"type": "FeatureCollection",
"name": "grid_gini_500m",
"crs": { "type": "name", "properties": { "name": "urn:ogc:def:crs:OGC:1.3:CRS84" } },
"features": [
{ "type": "Feature", "properties": { "agg_id": "다사", "gini": 0.51271593908352497, "gini_normalized": 0.55544226734048541, "total_facilities": 56395, "n_types_present": 13 }, "geometry": { "type": "Polygon", "coordinates": [ [ [ 126.374745757154869, 37.093301907756967 ], [ 126.361116802623144, 37.994485424130644 ], [ 127.5, 38.0 ], [ 127.5, 37.098640923277699 ], [ 126.374745757154869, 37.093301907756967 ] ] ] } }
]
}
